OBJECT C                
1 57582U 23117C   24295.19085158  .00012361  00000+0  58550-3 0  9998
2 57582  97.4737   5.7185 0009558 208.0230 152.0491 15.19428386 66296
